OBJECT_NAME,OBJECT_ID,EPOCH,MEAN_MOTION,ECCENTRICITY,INCLINATION,RA_OF_ASC_NODE,ARG_OF_PERICENTER,MEAN_ANOMALY,EPHEMERIS_TYPE,CLASSIFICATION_TYPE,NORAD_CAT_ID,ELEMENT_SET_NO,REV_AT_EPOCH,BSTAR,MEAN_MOTION_DOT,MEAN_MOTION_DDOT
STARLINK-36933,2026-114Q,2026-06-07T06:00:04.999968,15.80810876,.00010244,53.1592,251.9411,111.2956,177.9078,0,U,69196,999,321,.98296809E-3,.197235E-2,0
STARLINK-37419,2026-114R,2026-06-07T06:00:04.999968,15.80862238,.00010494,53.1592,251.9233,97.4433,200.2789,0,U,69197,999,321,.54132542E-3,.107425E-2,0
STARLINK-37321,2026-114S,2026-06-07T06:00:04.999968,15.80838407,.00012136,53.1594,251.9147,101.4579,200.5927,0,U,69198,999,321,.45406038E-3,.8971E-3,0
STARLINK-37406,2026-114T,2026-06-07T06:00:04.999968,15.80860259,.00010113,53.1591,251.9057,88.4711,217.8078,0,U,69199,999,321,.37124482E-3,.73152E-3,0
STARLINK-37761,2026-114U,2026-06-07T06:00:04.999968,15.80818380,.00011173,53.1592,251.8965,86.9379,223.6144,0,U,69200,999,321,.94976002E-3,.190462E-2,0
STARLINK-37754,2026-114V,2026-06-07T06:00:04.999968,15.80816443,.00010213,53.1590,251.8855,101.9208,214.0104,0,U,69201,999,321,.92926808E-3,.186229E-2,0
STARLINK-37649,2026-114W,2026-06-07T06:00:04.999968,15.80817220,.00011158,53.1592,251.8794,115.5119,203.5931,0,U,69202,999,321,.86958693E-3,.17398E-2,0
STARLINK-37604,2026-114X,2026-06-07T06:00:04.999968,15.80853787,.00008607,53.1592,251.8705,108.7006,214.6711,0,U,69203,999,321,.45436907E-3,.89836E-3,0
STARLINK-37669,2026-114Y,2026-06-07T06:00:04.999968,15.80868113,.00011504,53.1591,251.8616,97.8526,229.7827,0,U,69204,999,321,.33020706E-3,.6495E-3,0
STARLINK-37691,2026-114Z,2026-06-07T06:00:04.999968,15.81134868,.0000975,53.1590,251.8348,89.9142,250.4809,0,U,69205,999,321,-.35404814E-2,-.656729E-2,0
STARLINK-37671,2026-114AA,2026-06-07T06:00:04.999968,15.80833611,.00011033,53.1591,251.8436,104.3986,231.7882,0,U,69206,999,321,.72744132E-3,.145045E-2,0
STARLINK-37647,2026-114AB,2026-06-07T06:00:04.999968,15.80809870,.00012992,53.1590,251.8528,118.5842,213.3364,0,U,69207,999,321,.10044496E-2,.201655E-2,0
STARLINK-37562,2026-114AC,2026-06-07T06:00:04.999968,15.80830033,.00011049,53.1590,251.8254,92.9203,251.8132,0,U,69208,999,321,.77628775E-3,.154986E-2,0
STARLINK-37682,2026-114AD,2026-06-07T06:00:04.999968,15.80844234,.0000938,53.1591,251.8168,100.9487,248.0525,0,U,69209,999,321,.61107716E-3,.121455E-2,0
STARLINK-37402,2026-114AE,2026-06-07T06:00:04.999968,15.80851306,.00011987,53.1589,251.8081,113.6283,239.6367,0,U,69210,999,321,.5626633E-3,.111686E-2,0
STARLINK-37613,2026-115A,2026-06-07T06:00:04.999968,15.76464340,.0001226,97.2840,175.1559,90.1374,1.0951,0,U,69211,999,309,-.83450038E-2,-.1171886E-1,0
STARLINK-37713,2026-115B,2026-06-07T07:05:16.867968,15.80989335,.00011026,97.2837,175.2090,120.4891,239.6487,0,U,69212,999,312,.2239578E-2,.455633E-2,0
STARLINK-37716,2026-115C,2026-06-07T07:06:21.957408,15.80839846,.00018849,97.2841,175.2082,101.7847,258.3633,0,U,69213,999,312,.12069318E-2,.237715E-2,0
STARLINK-37620,2026-115D,2026-06-07T06:00:04.999968,15.73082764,.00015005,97.2844,175.1531,75.9821,11.2470,0,U,69214,999,309,-.22167648E-1,-.2628987E-1,0
STARLINK-37700,2026-115E,2026-06-07T06:00:04.999968,15.62881595,.00010723,97.2844,175.1184,79.1711,284.5619,0,U,69215,999,309,-.32191678E-1,-.2525089E-1,0
STARLINK-37766,2026-115F,2026-06-07T07:02:02.410944,15.80961618,.00013199,97.2835,175.2117,135.4636,224.6738,0,U,69216,999,312,.21010035E-2,.425382E-2,0
STARLINK-37763,2026-115G,2026-06-07T07:01:07.312800,15.80981187,.00014285,97.2836,175.2126,129.9599,230.1795,0,U,69217,999,312,.21734127E-2,.441252E-2,0
STARLINK-37724,2026-115H,2026-06-07T06:59:54.975264,15.80978882,.00015955,97.2840,175.2141,138.2040,221.9350,0,U,69218,999,312,.21032962E-2,.426217E-2,0
STARLINK-37758,2026-115J,2026-06-07T00:00:04.000320,15.80789926,.00010324,97.2839,174.9156,89.8729,70.3728,0,U,69219,999,305,.6253193E-3,.121167E-2,0
STARLINK-37201,2026-115K,2026-06-07T00:00:04.000320,15.80790363,.00011713,97.2846,174.9126,90.9419,62.2805,0,U,69220,999,305,.63622784E-3,.123317E-2,0
STARLINK-37728,2026-115L,2026-06-07T00:00:04.000320,15.80795092,.00012475,97.2848,174.9177,91.2460,75.7363,0,U,69221,999,305,.31699278E-3,.60944E-3,0
STARLINK-37760,2026-115M,2026-06-07T00:00:04.000320,15.80775863,.00012918,97.2844,174.9119,92.9369,58.4506,0,U,69222,999,305,.75002768E-3,.14568E-2,0
STARLINK-37759,2026-115N,2026-06-07T00:00:04.000320,15.80798002,.00011763,97.2840,174.9199,96.1667,74.8904,0,U,69223,999,305,.50334673E-3,.97273E-3,0
STARLINK-37725,2026-115P,2026-06-07T00:00:04.000320,15.80784486,.00011036,97.2845,174.9188,82.6334,85.1955,0,U,69224,999,305,.61024463E-3,.118173E-2,0
STARLINK-37770,2026-115Q,2026-06-07T00:00:04.000320,15.80737857,.00014986,97.2846,174.9171,88.3199,76.1105,0,U,69225,999,305,.95596963E-3,.18627E-2,0
