STARLINK-36933          
1 69196U 26114Q   26158.25005787  .00197235  00000+0  98297-3 0  9995
2 69196  53.1592 251.9411 0001024 111.2956 177.9078 15.80810876  3212
STARLINK-37419          
1 69197U 26114R   26158.25005787  .00107425  00000+0  54133-3 0  9999
2 69197  53.1592 251.9233 0001049  97.4433 200.2789 15.80862238  3215
STARLINK-37321          
1 69198U 26114S   26158.25005787  .00089710  00000+0  45406-3 0  9999
2 69198  53.1594 251.9147 0001213 101.4579 200.5927 15.80838407  3210
STARLINK-37406          
1 69199U 26114T   26158.25005787  .00073152  00000+0  37124-3 0  9991
2 69199  53.1591 251.9057 0001011  88.4711 217.8078 15.80860259  3214
STARLINK-37761          
1 69200U 26114U   26158.25005787  .00190462  00000+0  94976-3 0  9996
2 69200  53.1592 251.8965 0001117  86.9379 223.6144 15.80818380  3212
STARLINK-37754          
1 69201U 26114V   26158.25005787  .00186229  00000+0  92927-3 0  9997
2 69201  53.1590 251.8855 0001021 101.9208 214.0104 15.80816443  3210
STARLINK-37649          
1 69202U 26114W   26158.25005787  .00173980  00000+0  86959-3 0  9996
2 69202  53.1592 251.8794 0001115 115.5119 203.5931 15.80817220  3216
STARLINK-37604          
1 69203U 26114X   26158.25005787  .00089836  00000+0  45437-3 0  9999
2 69203  53.1592 251.8705 0000860 108.7006 214.6711 15.80853787  3211
STARLINK-37669          
1 69204U 26114Y   26158.25005787  .00064950  00000+0  33021-3 0  9996
2 69204  53.1591 251.8616 0001150  97.8526 229.7827 15.80868113  3214
STARLINK-37691          
1 69205U 26114Z   26158.25005787 -.00656729  00000+0 -35405-2 0  9997
2 69205  53.1590 251.8348 0000975  89.9142 250.4809 15.81134868  3211
STARLINK-37671          
1 69206U 26114AA  26158.25005787  .00145045  00000+0  72744-3 0  9998
2 69206  53.1591 251.8436 0001103 104.3986 231.7882 15.80833611  3217
STARLINK-37647          
1 69207U 26114AB  26158.25005787  .00201655  00000+0  10044-2 0  9993
2 69207  53.1590 251.8528 0001299 118.5842 213.3364 15.80809870  3214
STARLINK-37562          
1 69208U 26114AC  26158.25005787  .00154986  00000+0  77629-3 0  9991
2 69208  53.1590 251.8254 0001104  92.9203 251.8132 15.80830033  3217
STARLINK-37682          
1 69209U 26114AD  26158.25005787  .00121455  00000+0  61108-3 0  9992
2 69209  53.1591 251.8168 0000938 100.9487 248.0525 15.80844234  3213
STARLINK-37402          
1 69210U 26114AE  26158.25005787  .00111686  00000+0  56266-3 0  9998
2 69210  53.1589 251.8081 0001198 113.6283 239.6367 15.80851306  3218
STARLINK-37613          
1 69211U 26115A   26158.25005787 -.01171886  00000+0 -83450-2 0  9995
2 69211  97.2840 175.1559 0001226  90.1374   1.0951 15.76464340  3097
STARLINK-37713          
1 69212U 26115B   26158.29533412  .00455633  00000+0  22396-2 0  9995
2 69212  97.2837 175.2090 0001102 120.4891 239.6487 15.80989335  3127
STARLINK-37716          
1 69213U 26115C   26158.29608747  .00237715  00000+0  12069-2 0  9995
2 69213  97.2841 175.2082 0001884 101.7847 258.3633 15.80839846  3126
STARLINK-37620          
1 69214U 26115D   26158.25005787 -.02628987  00000+0 -22168-1 0  9996
2 69214  97.2844 175.1531 0001500  75.9821  11.2470 15.73082764  3099
STARLINK-37700          
1 69215U 26115E   26158.25005787 -.02525089  00000+0 -32192-1 0  9994
2 69215  97.2844 175.1184 0001072  79.1711 284.5619 15.62881595  3099
STARLINK-37766          
1 69216U 26115F   26158.29308346  .00425382  00000+0  21010-2 0  9995
2 69216  97.2835 175.2117 0001319 135.4636 224.6738 15.80961618  3129
STARLINK-37763          
1 69217U 26115G   26158.29244575  .00441252  00000+0  21734-2 0  9996
2 69217  97.2836 175.2126 0001428 129.9599 230.1795 15.80981187  3126
STARLINK-37724          
1 69218U 26115H   26158.29160851  .00426217  00000+0  21033-2 0  9997
2 69218  97.2840 175.2141 0001595 138.2040 221.9350 15.80978882  3121
STARLINK-37758          
1 69219U 26115J   26158.00004630  .00121167  00000+0  62532-3 0  9995
2 69219  97.2839 174.9156 0001032  89.8729  70.3728 15.80789926  3059
STARLINK-37201          
1 69220U 26115K   26158.00004630  .00123317  00000+0  63623-3 0  9998
2 69220  97.2846 174.9126 0001171  90.9419  62.2805 15.80790363  3052
STARLINK-37728          
1 69221U 26115L   26158.00004630  .00060944  00000+0  31699-3 0  9993
2 69221  97.2848 174.9177 0001247  91.2460  75.7363 15.80795092  3057
STARLINK-37760          
1 69222U 26115M   26158.00004630  .00145680  00000+0  75003-3 0  9992
2 69222  97.2844 174.9119 0001292  92.9369  58.4506 15.80775863  3057
STARLINK-37759          
1 69223U 26115N   26158.00004630  .00097273  00000+0  50335-3 0  9998
2 69223  97.2840 174.9199 0001176  96.1667  74.8904 15.80798002  3054
STARLINK-37725          
1 69224U 26115P   26158.00004630  .00118173  00000+0  61024-3 0  9999
2 69224  97.2845 174.9188 0001104  82.6334  85.1955 15.80784486  3052
STARLINK-37770          
1 69225U 26115Q   26158.00004630  .00186269  00000+0  95597-3 0  9993
2 69225  97.2846 174.9171 0001499  88.3199  76.1105 15.80737857  3052
